PANDORA
1 67395U 80229J   26121.69327546  .00000000  00000-0  37770-3 0    05
2 67395  97.8047 121.0769 0003778 286.7477  13.4752 14.87988640    06
